[{"OBJECT_NAME":"STARLINK-34435","OBJECT_ID":"2025-137J","EPOCH":"2026-03-09T22:52:47.555616","MEAN_MOTION":15.30203374,"ECCENTRICITY":0.00012293,"INCLINATION":53.1582,"RA_OF_ASC_NODE":334.1271,"ARG_OF_PERICENTER":127.801,"MEAN_ANOMALY":232.3102,"EPHEMERIS_TYPE":0,"CLASSIFICATION_TYPE":"U","NORAD_CAT_ID":64602,"ELEMENT_SET_NO":999,"REV_AT_EPOCH":4077,"BSTAR":0.00059822636,"MEAN_MOTION_DOT":0.00017402,"MEAN_MOTION_DDOT":0},{"OBJECT_NAME":"SL-3 R\/B","OBJECT_ID":"1982-079B","EPOCH":"2026-03-09T22:18:18.158976","MEAN_MOTION":15.24805533,"ECCENTRICITY":0.00250364,"INCLINATION":81.1481,"RA_OF_ASC_NODE":192.7939,"ARG_OF_PERICENTER":164.0597,"MEAN_ANOMALY":196.143,"EPHEMERIS_TYPE":0,"CLASSIFICATION_TYPE":"U","NORAD_CAT_ID":13403,"ELEMENT_SET_NO":999,"REV_AT_EPOCH":37773,"BSTAR":0.00032485557,"MEAN_MOTION_DOT":8.157e-5,"MEAN_MOTION_DDOT":0}]
